{
  "norad_id": 62574,
  "name": "STARLINK-32766",
  "history": [
    {
      "epoch": "2026-03-28T17:20:13.010784",
      "apogee_km": 483.8271151727995,
      "perigee_km": 482.0436480179278,
      "latitude_deg": -42.649327256365794,
      "longitude_deg": 146.74778975988738,
      "semi_major_axis_km": 6861.072381595363,
      "eccentricity": 0.00012997,
      "inclination_deg": 43.0027,
      "raan_deg": 185.0681,
      "arg_perigee_deg": 267.5448,
      "mean_anomaly_deg": 92.5255,
      "mean_motion_rev_day": 15.27617977
    }
  ]
}